<?xml version="1.0" encoding="utf-8" ?>
<kml xmlns="http://www.opengis.net/kml/2.2">
<Document id="root_doc">
<Folder><name>download_area</name>
  <Placemark>
	<name>Rectangle #60</name>
	<Style><LineStyle><color>ff0000ff</color></LineStyle><PolyStyle><fill>0</fill></PolyStyle></Style>
      <Polygon><outerBoundaryIs><LinearRing><coordinates>102.72525787353516,24.496833902683598 102.8766632080078,24.496521484019119 102.87700653076166,24.328640723773219 102.72525787353516,24.328640723773219 102.72525787353516,24.496833902683598</coordinates></LinearRing></outerBoundaryIs></Polygon>
  </Placemark>
</Folder>
</Document></kml>
